{
  "norad_id": 36395,
  "name": "SDO",
  "history": [
    {
      "epoch": "2026-04-24T10:17:38.609376Z",
      "apogee_km": 35791.10067734152,
      "perigee_km": 35781.66425788466,
      "latitude_deg": 1.1225734863266181,
      "longitude_deg": -101.39031772400718,
      "height_km": 35789.79902348034,
      "semi_major_axis_km": 42164.51946761309,
      "eccentricity": 0.0001119,
      "inclination_deg": 34.5424,
      "raan_deg": 87.1509,
      "arg_perigee_deg": 35.5481,
      "mean_anomaly_deg": 142.3962,
      "mean_motion_rev_day": 1.00272543
    },
    {
      "epoch": "2026-04-25T09:58:43.614048Z",
      "apogee_km": 35791.086109404765,
      "perigee_km": 35781.64126125126,
      "latitude_deg": 3.243529460799687,
      "longitude_deg": -100.73930642164379,
      "height_km": 35789.42188033825,
      "semi_major_axis_km": 42164.500685328014,
      "eccentricity": 0.000112,
      "inclination_deg": 34.5445,
      "raan_deg": 87.1361,
      "arg_perigee_deg": 34.5839,
      "mean_anomaly_deg": 139.6162,
      "mean_motion_rev_day": 1.0027261
    },
    {
      "epoch": "2026-04-26T10:53:50.378784Z",
      "apogee_km": 35791.04259807222,
      "perigee_km": 35781.639919420515,
      "latitude_deg": -5.140972704491844,
      "longitude_deg": -103.32881409717925,
      "height_km": 35791.286299635525,
      "semi_major_axis_km": 42164.47825874637,
      "eccentricity": 0.0001115,
      "inclination_deg": 34.5467,
      "raan_deg": 87.1205,
      "arg_perigee_deg": 32.9808,
      "mean_anomaly_deg": 156.034,
      "mean_motion_rev_day": 1.0027269
    },
    {
      "epoch": "2026-04-27T10:19:17.316192Z",
      "apogee_km": 35790.97097348606,
      "perigee_km": 35781.66949422027,
      "latitude_deg": -0.8117204590185968,
      "longitude_deg": -102.00129286662795,
      "height_km": 35790.26616361996,
      "semi_major_axis_km": 42164.457233853165,
      "eccentricity": 0.0001103,
      "inclination_deg": 34.5488,
      "raan_deg": 87.1058,
      "arg_perigee_deg": 31.5057,
      "mean_anomaly_deg": 149.8459,
      "mean_motion_rev_day": 1.00272765
    },
    {
      "epoch": "2026-04-28T10:34:28.646112Z",
      "apogee_km": 35790.87910784396,
      "perigee_km": 35781.72099211671,
      "latitude_deg": -3.536687030625148,
      "longitude_deg": -102.84388484232721,
      "height_km": 35790.84025847719,
      "semi_major_axis_km": 42164.43704998034,
      "eccentricity": 0.0001086,
      "inclination_deg": 34.5508,
      "raan_deg": 87.0908,
      "arg_perigee_deg": 30.0564,
      "mean_anomaly_deg": 156.1016,
      "mean_motion_rev_day": 1.00272837
    },
    {
      "epoch": "2026-04-29T10:41:15.654912Z",
      "apogee_km": 35790.80353631461,
      "perigee_km": 35781.76348455718,
      "latitude_deg": -5.06294260123428,
      "longitude_deg": -103.30807561031901,
      "height_km": 35791.162679504145,
      "semi_major_axis_km": 42164.4205104359,
      "eccentricity": 0.0001072,
      "inclination_deg": 34.5528,
      "raan_deg": 87.0758,
      "arg_perigee_deg": 28.9897,
      "mean_anomaly_deg": 159.8676,
      "mean_motion_rev_day": 1.00272896
    },
    {
      "epoch": "2026-04-30T09:56:05.970336Z",
      "apogee_km": 35790.71952093349,
      "perigee_km": 35781.82283080838,
      "latitude_deg": 0.7739792477821975,
      "longitude_deg": -101.50752268193527,
      "height_km": 35789.85558822298,
      "semi_major_axis_km": 42164.408175870936,
      "eccentricity": 0.0001055,
      "inclination_deg": 34.5547,
      "raan_deg": 87.0614,
      "arg_perigee_deg": 28.2871,
      "mean_anomaly_deg": 150.2475,
      "mean_motion_rev_day": 1.0027294
    },
    {
      "epoch": "2026-05-01T09:53:35.624832Z",
      "apogee_km": 35790.60021774938,
      "perigee_km": 35781.92531414153,
      "latitude_deg": 0.5600387742829742,
      "longitude_deg": -101.57214645633971,
      "height_km": 35789.80605037337,
      "semi_major_axis_km": 42164.399765945454,
      "eccentricity": 0.00010287,
      "inclination_deg": 34.5566,
      "raan_deg": 87.0466,
      "arg_perigee_deg": 27.9299,
      "mean_anomaly_deg": 150.9756,
      "mean_motion_rev_day": 1.0027297
    },
    {
      "epoch": "2026-05-03T09:54:24.337152Z",
      "apogee_km": 35790.23437647913,
      "perigee_km": 35782.287230781105,
      "latitude_deg": -0.6927541657280724,
      "longitude_deg": -101.95922244439966,
      "height_km": 35789.73484572488,
      "semi_major_axis_km": 42164.39780363012,
      "eccentricity": 9.424e-05,
      "inclination_deg": 34.5604,
      "raan_deg": 87.017,
      "arg_perigee_deg": 27.6125,
      "mean_anomaly_deg": 153.495,
      "mean_motion_rev_day": 1.00272977
    },
    {
      "epoch": "2026-05-04T10:03:32.685120Z",
      "apogee_km": 35790.227042862505,
      "perigee_km": 35782.3136268939,
      "latitude_deg": -2.5579435936612436,
      "longitude_deg": -102.5377366923609,
      "height_km": 35790.06772497455,
      "semi_major_axis_km": 42164.407334878204,
      "eccentricity": 9.384e-05,
      "inclination_deg": 34.5624,
      "raan_deg": 87.0022,
      "arg_perigee_deg": 28.989,
      "mean_anomaly_deg": 155.4084,
      "mean_motion_rev_day": 1.00272943
    },
    {
      "epoch": "2026-05-05T11:00:00.695232Z",
      "apogee_km": 35790.08814294804,
      "perigee_km": 35782.4816812351,
      "latitude_deg": -11.009569005624774,
      "longitude_deg": -105.01335277322715,
      "height_km": 35792.032597679485,
      "semi_major_axis_km": 42164.42191209157,
      "eccentricity": 9.02e-05,
      "inclination_deg": 34.5643,
      "raan_deg": 86.9869,
      "arg_perigee_deg": 29.8872,
      "mean_anomaly_deg": 169.665,
      "mean_motion_rev_day": 1.00272891
    },
    {
      "epoch": "2026-05-06T09:14:17.740320Z",
      "apogee_km": 35790.040722007994,
      "perigee_km": 35782.57171253649,
      "latitude_deg": 3.3154407154177234,
      "longitude_deg": -100.72238895200248,
      "height_km": 35788.74110914695,
      "semi_major_axis_km": 42164.443217272245,
      "eccentricity": 8.857e-05,
      "inclination_deg": 34.5661,
      "raan_deg": 86.9732,
      "arg_perigee_deg": 31.4158,
      "mean_anomaly_deg": 142.6328,
      "mean_motion_rev_day": 1.00272815
    }
  ]
}